CCSDS_OMM_VERS = 2.0
CREATION_DATE  = 
ORIGINATOR     = 

OBJECT_NAME    = ATLAS CENTAUR 2
OBJECT_ID      = 1963-047A
CENTER_NAME    = EARTH
REF_FRAME      = TEME
TIME_SYSTEM    = UTC
MEAN_ELEMENT_THEORY = SGP/SGP4

EPOCH          = 2025-12-05T17:20:26.630880
MEAN_MOTION    = 14.11698963
ECCENTRICITY   = .05491683
INCLINATION    = 30.3579
RA_OF_ASC_NODE = 0.6526
ARG_OF_PERICENTER = 332.3538
MEAN_ANOMALY   = 24.8847

EPHEMERIS_TYPE = 0
CLASSIFICATION_TYPE = U
NORAD_CAT_ID   = 694
ELEMENT_SET_NO = 999
REV_AT_EPOCH   = 11833
BSTAR          = .64383736E-3
MEAN_MOTION_DOT = .5332E-4
MEAN_MOTION_DDOT = 0

CCSDS_OMM_VERS = 2.0
CREATION_DATE  = 
ORIGINATOR     = 

OBJECT_NAME    = THOR AGENA D R/B
OBJECT_ID      = 1964-002A
CENTER_NAME    = EARTH
REF_FRAME      = TEME
TIME_SYSTEM    = UTC
MEAN_ELEMENT_THEORY = SGP/SGP4

EPOCH          = 2025-12-05T22:53:49.411968
MEAN_MOTION    = 14.33953449
ECCENTRICITY   = .00330604
INCLINATION    = 99.1216
RA_OF_ASC_NODE = 343.2058
ARG_OF_PERICENTER = 169.7985
MEAN_ANOMALY   = 190.3876

EPHEMERIS_TYPE = 0
CLASSIFICATION_TYPE = U
NORAD_CAT_ID   = 733
ELEMENT_SET_NO = 999
REV_AT_EPOCH   = 22486
BSTAR          = .17826725E-3
MEAN_MOTION_DOT = .452E-5
MEAN_MOTION_DDOT = 0

CCSDS_OMM_VERS = 2.0
CREATION_DATE  = 
ORIGINATOR     = 

OBJECT_NAME    = SL-3 R/B
OBJECT_ID      = 1964-053B
CENTER_NAME    = EARTH
REF_FRAME      = TEME
TIME_SYSTEM    = UTC
MEAN_ELEMENT_THEORY = SGP/SGP4

EPOCH          = 2025-12-06T00:03:17.502624
MEAN_MOTION    = 14.61265919
ECCENTRICITY   = .00732871
INCLINATION    = 65.0769
RA_OF_ASC_NODE = 245.8822
ARG_OF_PERICENTER = 322.5841
MEAN_ANOMALY   = 37.0168

EPHEMERIS_TYPE = 0
CLASSIFICATION_TYPE = U
NORAD_CAT_ID   = 877
ELEMENT_SET_NO = 999
REV_AT_EPOCH   = 25310
BSTAR          = .17830032E-3
MEAN_MOTION_DOT = .791E-5
MEAN_MOTION_DDOT = 0

CCSDS_OMM_VERS = 2.0
CREATION_DATE  = 
ORIGINATOR     = 

OBJECT_NAME    = SL-8 R/B
OBJECT_ID      = 1967-045B
CENTER_NAME    = EARTH
REF_FRAME      = TEME
TIME_SYSTEM    = UTC
MEAN_ELEMENT_THEORY = SGP/SGP4

EPOCH          = 2025-12-05T22:35:24.476928
MEAN_MOTION    = 14.45526625
ECCENTRICITY   = .00646422
INCLINATION    = 74.0095
RA_OF_ASC_NODE = 163.1574
ARG_OF_PERICENTER = 194.0666
MEAN_ANOMALY   = 165.8695

EPHEMERIS_TYPE = 0
CLASSIFICATION_TYPE = U
NORAD_CAT_ID   = 2802
ELEMENT_SET_NO = 999
REV_AT_EPOCH   = 7547
BSTAR          = .18522462E-3
MEAN_MOTION_DOT = .642E-5
MEAN_MOTION_DDOT = 0

CCSDS_OMM_VERS = 2.0
CREATION_DATE  = 
ORIGINATOR     = 

OBJECT_NAME    = SL-8 R/B
OBJECT_ID      = 1968-040B
CENTER_NAME    = EARTH
REF_FRAME      = TEME
TIME_SYSTEM    = UTC
MEAN_ELEMENT_THEORY = SGP/SGP4

EPOCH          = 2025-12-05T21:58:02.965440
MEAN_MOTION    = 15.02450591
ECCENTRICITY   = .00249827
INCLINATION    = 74.0293
RA_OF_ASC_NODE = 145.1868
ARG_OF_PERICENTER = 348.3901
MEAN_ANOMALY   = 11.6707

EPHEMERIS_TYPE = 0
CLASSIFICATION_TYPE = U
NORAD_CAT_ID   = 3230
ELEMENT_SET_NO = 999
REV_AT_EPOCH   = 7592
BSTAR          = .40294706E-3
MEAN_MOTION_DOT = .5342E-4
MEAN_MOTION_DDOT = 0

CCSDS_OMM_VERS = 2.0
CREATION_DATE  = 
ORIGINATOR     = 

OBJECT_NAME    = OAO 2
OBJECT_ID      = 1968-110A
CENTER_NAME    = EARTH
REF_FRAME      = TEME
TIME_SYSTEM    = UTC
MEAN_ELEMENT_THEORY = SGP/SGP4

EPOCH          = 2025-12-05T22:59:13.920864
MEAN_MOTION    = 14.47237238
ECCENTRICITY   = .00053542
INCLINATION    = 34.9938
RA_OF_ASC_NODE = 68.5196
ARG_OF_PERICENTER = 171.8136
MEAN_ANOMALY   = 188.2643

EPHEMERIS_TYPE = 0
CLASSIFICATION_TYPE = U
NORAD_CAT_ID   = 3597
ELEMENT_SET_NO = 999
REV_AT_EPOCH   = 551
BSTAR          = .15571607E-3
MEAN_MOTION_DOT = .558E-5
MEAN_MOTION_DDOT = 0

CCSDS_OMM_VERS = 2.0
CREATION_DATE  = 
ORIGINATOR     = 

OBJECT_NAME    = ISIS 1
OBJECT_ID      = 1969-009A
CENTER_NAME    = EARTH
REF_FRAME      = TEME
TIME_SYSTEM    = UTC
MEAN_ELEMENT_THEORY = SGP/SGP4

EPOCH          = 2025-12-05T19:14:52.952928
MEAN_MOTION    = 11.30349994
ECCENTRICITY   = .17068623
INCLINATION    = 88.4488
RA_OF_ASC_NODE = 165.5553
ARG_OF_PERICENTER = 278.7205
MEAN_ANOMALY   = 62.5046

EPHEMERIS_TYPE = 0
CLASSIFICATION_TYPE = U
NORAD_CAT_ID   = 3669
ELEMENT_SET_NO = 999
REV_AT_EPOCH   = 33792
BSTAR          = .25234313E-3
MEAN_MOTION_DOT = .347E-5
MEAN_MOTION_DDOT = 0

CCSDS_OMM_VERS = 2.0
CREATION_DATE  = 
ORIGINATOR     = 

OBJECT_NAME    = SERT 2
OBJECT_ID      = 1970-009A
CENTER_NAME    = EARTH
REF_FRAME      = TEME
TIME_SYSTEM    = UTC
MEAN_ELEMENT_THEORY = SGP/SGP4

EPOCH          = 2025-12-05T19:26:20.945760
MEAN_MOTION    = 13.58716328
ECCENTRICITY   = .00055525
INCLINATION    = 99.2638
RA_OF_ASC_NODE = 283.0976
ARG_OF_PERICENTER = 49.9810
MEAN_ANOMALY   = 4.0090

EPHEMERIS_TYPE = 0
CLASSIFICATION_TYPE = U
NORAD_CAT_ID   = 4327
ELEMENT_SET_NO = 999
REV_AT_EPOCH   = 76714
BSTAR          = .14083961E-3
MEAN_MOTION_DOT = .62E-6
MEAN_MOTION_DDOT = 0

CCSDS_OMM_VERS = 2.0
CREATION_DATE  = 
ORIGINATOR     = 

OBJECT_NAME    = SL-3 R/B
OBJECT_ID      = 1971-028B
CENTER_NAME    = EARTH
REF_FRAME      = TEME
TIME_SYSTEM    = UTC
MEAN_ELEMENT_THEORY = SGP/SGP4

EPOCH          = 2025-12-05T21:58:01.583904
MEAN_MOTION    = 15.53914930
ECCENTRICITY   = .0019535
INCLINATION    = 81.2367
RA_OF_ASC_NODE = 167.1878
ARG_OF_PERICENTER = 265.1597
MEAN_ANOMALY   = 94.7422

EPHEMERIS_TYPE = 0
CLASSIFICATION_TYPE = U
NORAD_CAT_ID   = 5118
ELEMENT_SET_NO = 999
REV_AT_EPOCH   = 97407
BSTAR          = .58080519E-3
MEAN_MOTION_DOT = .37882E-3
MEAN_MOTION_DDOT = 0

CCSDS_OMM_VERS = 2.0
CREATION_DATE  = 
ORIGINATOR     = 

OBJECT_NAME    = ASTEX 1
OBJECT_ID      = 1971-089A
CENTER_NAME    = EARTH
REF_FRAME      = TEME
TIME_SYSTEM    = UTC
MEAN_ELEMENT_THEORY = SGP/SGP4

EPOCH          = 2025-12-05T22:40:44.395392
MEAN_MOTION    = 14.50629551
ECCENTRICITY   = .00171552
INCLINATION    = 92.7136
RA_OF_ASC_NODE = 121.4209
ARG_OF_PERICENTER = 47.1103
MEAN_ANOMALY   = 313.1540

EPHEMERIS_TYPE = 0
CLASSIFICATION_TYPE = U
NORAD_CAT_ID   = 5560
ELEMENT_SET_NO = 999
REV_AT_EPOCH   = 84871
BSTAR          = .2754247E-3
MEAN_MOTION_DOT = .1081E-4
MEAN_MOTION_DDOT = 0

CCSDS_OMM_VERS = 2.0
CREATION_DATE  = 
ORIGINATOR     = 

OBJECT_NAME    = SL-8 R/B
OBJECT_ID      = 1971-119B
CENTER_NAME    = EARTH
REF_FRAME      = TEME
TIME_SYSTEM    = UTC
MEAN_ELEMENT_THEORY = SGP/SGP4

EPOCH          = 2025-12-05T12:13:48.564768
MEAN_MOTION    = 14.35481048
ECCENTRICITY   = .05600435
INCLINATION    = 73.8880
RA_OF_ASC_NODE = 351.4645
ARG_OF_PERICENTER = 337.1866
MEAN_ANOMALY   = 20.5245

EPHEMERIS_TYPE = 0
CLASSIFICATION_TYPE = U
NORAD_CAT_ID   = 5730
ELEMENT_SET_NO = 999
REV_AT_EPOCH   = 64196
BSTAR          = .86147645E-3
MEAN_MOTION_DOT = .16478E-3
MEAN_MOTION_DDOT = 0

CCSDS_OMM_VERS = 2.0
CREATION_DATE  = 
ORIGINATOR     = 

OBJECT_NAME    = OAO 3 (COPERNICUS)
OBJECT_ID      = 1972-065A
CENTER_NAME    = EARTH
REF_FRAME      = TEME
TIME_SYSTEM    = UTC
MEAN_ELEMENT_THEORY = SGP/SGP4

EPOCH          = 2025-12-05T16:37:38.754624
MEAN_MOTION    = 14.59896458
ECCENTRICITY   = .0005966
INCLINATION    = 35.0047
RA_OF_ASC_NODE = 112.8086
ARG_OF_PERICENTER = 113.0417
MEAN_ANOMALY   = 264.1689

EPHEMERIS_TYPE = 0
CLASSIFICATION_TYPE = U
NORAD_CAT_ID   = 6153
ELEMENT_SET_NO = 999
REV_AT_EPOCH   = 83245
BSTAR          = .16651107E-3
MEAN_MOTION_DOT = .788E-5
MEAN_MOTION_DDOT = 0

