ATLAS CENTAUR 2         
1 00694U 63047A   25339.72253045  .00005332  00000+0  64384-3 0  9999
2 00694  30.3579   0.6526 0549168 332.3538  24.8847 14.11698963118334
THOR AGENA D R/B        
1 00733U 64002A   25339.95404412  .00000452  00000+0  17827-3 0  9994
2 00733  99.1216 343.2058 0033060 169.7985 190.3876 14.33953449224866
SL-3 R/B                
1 00877U 64053B   25340.00228591  .00000791  00000+0  17830-3 0  9999
2 00877  65.0769 245.8822 0073287 322.5841  37.0168 14.61265919253100
SL-8 R/B                
1 02802U 67045B   25339.94125552  .00000642  00000+0  18522-3 0  9991
2 02802  74.0095 163.1574 0064642 194.0666 165.8695 14.45526625 75473
SL-8 R/B                
1 03230U 68040B   25339.91531210  .00005342  00000+0  40295-3 0  9996
2 03230  74.0293 145.1868 0024982 348.3901  11.6707 15.02450591 75928
OAO 2                   
1 03597U 68110A   25339.95780001  .00000558  00000+0  15572-3 0  9992
2 03597  34.9938  68.5196 0005354 171.8136 188.2643 14.47237238  5515
ISIS 1                  
1 03669U 69009A   25339.80200177  .00000347  00000+0  25234-3 0  9997
2 03669  88.4488 165.5553 1706862 278.7205  62.5046 11.30349994337927
SERT 2                  
1 04327U 70009A   25339.80996465  .00000062  00000+0  14084-3 0  9998
2 04327  99.2638 283.0976 0005552  49.9810   4.0090 13.58716328767140
SL-3 R/B                
1 05118U 71028B   25339.91529611  .00037882  00000+0  58081-3 0  9991
2 05118  81.2367 167.1878 0019535 265.1597  94.7422 15.53914930974075
ASTEX 1                 
1 05560U 71089A   25339.94495828  .00001081  00000+0  27542-3 0  9994
2 05560  92.7136 121.4209 0017155  47.1103 313.1540 14.50629551848713
SL-8 R/B                
1 05730U 71119B   25339.50958987  .00016478  00000+0  86148-3 0  9992
2 05730  73.8880 351.4645 0560043 337.1866  20.5245 14.35481048641963
OAO 3 (COPERNICUS)      
1 06153U 72065A   25339.69280966  .00000788  00000+0  16651-3 0  9997
2 06153  35.0047 112.8086 0005966 113.0417 264.1689 14.59896458832452
